OBJECT_NAME,OBJECT_ID,EPOCH,MEAN_MOTION,ECCENTRICITY,INCLINATION,RA_OF_ASC_NODE,ARG_OF_PERICENTER,MEAN_ANOMALY,EPHEMERIS_TYPE,CLASSIFICATION_TYPE,NORAD_CAT_ID,ELEMENT_SET_NO,REV_AT_EPOCH,BSTAR,MEAN_MOTION_DOT,MEAN_MOTION_DDOT
OSCAR 7 (AO-7),1974-089B,2026-07-14T14:33:01.721088,12.53698560,.0012661,101.9905,209.1386,79.4493,40.0300,0,U,7530,999,36395,.86767E-4,-.32E-6,0
PHASE 3B (AO-10),1983-058B,2026-07-13T02:29:46.528800,2.05872336,.60022234,25.9345,215.2934,122.7887,309.2966,0,U,14129,999,29602,0,-.187E-5,0
UOSAT 2 (UO-11),1984-021B,2026-07-14T19:22:18.852096,14.90848396,.0009213,97.8076,161.0771,92.5056,267.7217,0,U,14781,999,26124,.65424E-4,.589E-5,0
LUSAT (LO-19),1990-005G,2026-07-14T14:25:26.175360,14.34130652,.0012525,98.8847,218.1611,122.9909,237.2480,0,U,20442,999,90632,.3182E-4,.42E-6,0
EYESAT A (AO-27),1993-061C,2026-07-14T18:13:46.360704,14.30948990,.0008786,98.6869,263.1613,27.0664,333.0976,0,U,22825,999,71094,.31561E-4,.38E-6,0
ITAMSAT (IO-26),1993-061D,2026-07-14T17:32:16.483776,14.31376581,.0008995,98.6815,263.0527,10.7506,349.3868,0,U,22826,999,71125,.32026E-4,.4E-6,0
RADIO ROSTO (RS15),1994-085A,2026-07-14T12:30:06.550560,11.27583545,.01568942,64.8152,259.0113,358.8329,1.2209,0,U,23439,999,29898,.18080078E-3,-.36E-6,0
JAS-2 (FO-29),1996-046B,2026-07-14T19:32:22.902144,13.53275637,.035038,98.5220,40.8992,24.9279,336.8338,0,U,24278,999,47690,.45827E-4,.11E-6,0
TECHSAT 1B (GO-32),1998-043D,2026-07-14T12:42:16.116480,14.24433285,.00021716,99.0085,188.9795,115.5342,244.6061,0,U,25397,999,45522,.22944989E-4,.6E-7,0
ISS (ZARYA),1998-067A,2026-07-14T20:43:00.778080,15.49008846,.0006677,51.6306,163.1262,297.0398,62.9909,0,U,25544,999,57604,.54527E-4,.2555E-4,0
PCSAT (NO-44),2001-043C,2026-07-14T07:53:52.899936,14.31964812,.00059278,67.0494,174.0696,266.5603,93.4821,0,U,26931,999,29433,.34932941E-4,.11E-6,0
SAUDISAT 1C (SO-50),2002-058C,2026-07-14T19:14:56.096160,14.83097966,.0074548,64.5518,43.5419,257.3375,101.9390,0,U,27607,999,26855,.62311E-4,.375E-5,0
CUTE-1 (CO-55),2003-031E,2026-07-14T13:46:54.318720,14.24351310,.0010828,98.6742,203.7891,104.2879,255.9503,0,U,27844,999,19557,.79585E-4,.14E-5,0
CUBESAT XI-IV (CO-57),2003-031J,2026-07-14T13:50:06.354816,14.23634354,.0010527,98.6774,203.4819,121.1058,239.1154,0,U,27848,999,19527,.70501E-4,.117E-5,0
MOZHAETS 4 (RS22),2003-042A,2026-07-14T20:37:53.651136,14.73515703,.0011197,98.3468,21.0019,174.2713,297.4722,0,U,27939,999,21962,.14705E-3,.902E-5,0
CUBESAT XI-V,2005-043F,2026-07-14T09:02:23.284032,14.72701135,.00152302,98.3013,351.5747,117.6296,242.6459,0,U,28895,999,10575,.11574661E-3,.686E-5,0
CUTE-1.7+APD II (CO-65),2008-021C,2026-07-14T19:45:35.083008,15.09699061,.0007039,97.8291,177.8241,300.9079,59.1457,0,U,32785,999,98936,.18661E-3,.2941E-4,0
SEEDS II (CO-66),2008-021J,2026-07-14T13:07:00.152256,15.33652134,.0002981,97.7520,194.7703,157.5049,202.6324,0,U,32791,999,99148,.32244E-3,.1041E-3,0
YUBILEINY (RS30),2008-025A,2026-07-14T20:43:17.614848,12.43180542,.0018594,82.5056,338.2226,249.7516,110.1565,0,U,32953,999,82313,-.30503E-3,-.33E-6,0
KKS-1 (KISEKI),2009-002H,2026-07-14T20:23:29.656320,14.83188731,.00074,98.1174,118.7302,190.1737,169.9327,0,U,33499,999,94029,.82917E-4,.621E-5,0
SWISSCUBE,2009-051B,2026-07-14T17:46:10.898688,14.62530263,.0007823,98.4008,104.1063,120.2894,239.9082,0,U,35932,999,89318,.10206E-3,.468E-5,0
BEESAT-1,2009-051C,2026-07-14T16:41:56.910048,14.61761410,.0006093,98.3936,103.6385,131.1262,229.0465,0,U,35933,999,89320,.87927E-4,.389E-5,0
ITUPSAT1,2009-051E,2026-07-14T17:03:33.869088,14.60478385,.0008055,98.4019,102.8162,144.4895,215.6843,0,U,35935,999,89275,.8435E-4,.36E-5,0
XIWANG-1 (HOPE-1),2009-072B,2026-07-14T19:57:26.753760,13.16441439,.000755,100.4033,149.2239,165.4885,194.6446,0,U,36122,999,79664,.79649E-3,.26E-5,0
O/OREOS (USA 219),2010-062C,2026-07-14T15:39:49.894848,14.93850312,.0013944,71.9697,18.1178,6.1523,353.9816,0,U,37224,999,12074,.10439E-3,.1047E-4,0
JUGNU,2011-058B,2026-07-14T04:48:38.397888,14.13783328,.00185389,19.9593,144.3072,15.5090,113.9676,0,U,37839,999,76285,.38942497E-4,.341E-5,0
SRMSAT,2011-058D,2026-07-14T07:00:26.119872,14.11580990,.0011787,19.9711,255.4136,141.3057,265.6885,0,U,37841,999,76165,.42066051E-4,.343E-5,0
STRAND-1,2013-009E,2026-07-14T11:41:03.699168,14.37178635,.00093749,98.3933,15.0510,143.0599,217.1235,0,U,39090,999,70098,.58406637E-4,.131E-5,0
ZACUBE-1 (TSHEPISOSAT),2013-066B,2026-07-14T20:49:59.049984,15.01327872,.0044011,97.8008,158.3415,156.2520,204.0748,0,U,39417,999,68488,.99204E-4,.1239E-4,0
GOMX-1,2013-066Q,2026-07-14T19:56:19.271040,14.69542594,.0128297,97.6469,34.5491,349.3818,10.4684,0,U,39430,999,67397,.12511E-3,.789E-5,0
